#dP2024  8  8  0  0  0.00000000      96 __u+U IGS20 FIT  IAC
## 2326 345600.00000000   900.00000000 60530 0.0000000000000
+   53   G02G03G04G05G06G07G08G09G10G11G12G13G14G15G16G17G18
+        G19G20G21G22G23G24G25G26G27G28G29G30G31G32R01R02R03
+        R04R05R07R08R09R11R12R14R15R16R17R18R19R20R21R22R24
+        R25R26  0  0  0  0  0  0  0  0  0  0  0  0  0  0  0
+          0  0  0  0  0  0  0  0  0  0  0  0  0  0  0  0  0
++         6  6  6  7  7  7  6  7  6  7  5  4  5  6  5  7  7
++         8  6  7  5  6  7  8  7  5  5  8  7  6  8  7  7  6
++         7  7  7  7  6  6  7  6  7  7  6  5  6  7  6  8  6
++         6  6  0  0  0  0  0  0  0  0  0  0  0  0  0  0  0
++         0  0  0  0  0  0  0  0  0  0  0  0  0  0  0  0  0
%c M  cc GPS ccc cccc cccc cccc cccc ccccc ccccc ccccc ccccc
%c cc cc ccc ccc cccc cccc cccc cccc ccccc ccccc ccccc ccccc
%f  0.0000000  0.000000000  0.00000000000  0.000000000000000
%f  0.0000000  0.000000000  0.00000000000  0.000000000000000
%i    0    0    0    0      0      0      0      0         0
%i    0    0    0    0      0      0      0      0         0
/* INFORMATION & ANALYSIS CENTER (IAC)      ULTRA-RAPID DATA
/* S/V CLOCKS ARE ALIGNED TO GNSS TIME                      
/* G:C1WC2W R:C1PC2P E:C1XC5X C:C2IC6I J:C1CC2S             
/* PCV:IGS20_2317 OL/AL:FES2004  NONE     YN ORB:CoN CLK:CoN
*  2024 08 08 11  0  0.00000000
PG02  20934.530399  10799.602417  13048.463665   -383.146986
PG03  15985.448273  -1422.371277  20973.633494    491.687290
PG04  26310.383531   1204.716983   3991.749706    420.039940
PG05  -8795.750645 -15070.731443 -20185.691715   -182.502814
PG06  -1153.386974 -20781.719904  16498.682109    111.658769
PG07  14441.220346  -5671.155647 -21074.690861    -55.201688
PG08  21336.186457   7525.440756 -14362.190395    307.448721
PG09  24423.980419  -7890.345735  -7029.505258    305.679333
PG10 -10133.157266  24323.363041   1435.254132    -88.014492
PG11 -11848.722677 -23483.365898   3959.769154   -718.288469
PG12 -15355.516188  -2746.608619  21211.697924   -528.724773
PG13 -13599.019558 -13449.037412 -18749.727119    669.551088
PG14  13073.114106 -22846.163063  -2448.048110    467.618211
PG15 -21981.442887  -5445.946403 -14532.939914    190.228179
PG16   4594.417986  18417.339791 -18724.126474   -214.321850
PG17  13657.961292 -13457.912573  18870.794706    659.739854
PG18 -13617.560589   6394.296764 -21884.520354   -644.344183
PG19   3859.655779 -14793.152765  21516.624326    521.714300
PG20  -3417.180367 -23079.544702 -12765.452233    371.900751
PG21  20825.828243  15552.545296   8091.010188    104.160781
PG22   8872.879174 -24489.535890   6355.727122    -48.931567
PG23 -15704.647543  18273.753810 -10903.386870    292.530495
PG24 -21007.934887 -12885.020990   9988.594235   -485.756586
PG25 -17498.268066   9696.163709  17004.968062    499.157643
PG26  -2684.163815  25024.712374  -8023.576269    104.636955
PG27  11244.115294  13232.267600 -20501.173469    -32.710022
PG28   -400.523198  19825.699743  17659.178000   -364.261074
PG29 -26156.241316   3167.062594  -3908.512188   -585.243528
PG30   6476.480086 -16138.022967 -19854.583912   -343.681128
PG31   8770.789162  23365.927686   8276.299404   -226.070945
PG32 -11066.232006  14674.861858  19315.210141   -607.259589
PR01 -19897.358351  14390.992351   6924.423336     93.864908
PR02  -6987.434092  13869.468204  20253.670080    -24.033351
PR03  10716.833868   6326.711921  22317.764389    105.247923
PR04  21950.859956  -4379.508520  12272.127758    248.959839
PR05  21687.686345 -12718.592793  -4375.650969    135.768484
PR07 -11200.302500  -5968.212651 -22081.146651     88.366910
PR08 -22000.010793   4711.760866 -11929.644981     -6.301835
PR09   1014.714416 -25432.185880   -711.266917    202.221292
PR11 -10687.889211  -3858.552578  22850.363058     15.556189
PR12  -9083.008654  16728.968693  17004.910517     43.390169
PR14   6600.207588  19264.410997 -15358.956987     26.791155
PR15  10945.355861   2084.247782 -22920.875905     77.060214
PR16   8940.098003 -16597.228406 -17147.524826     28.069500
PR17  18877.234808  15991.714258  -6098.585512    111.694404
PR18  21499.426535   9099.806068  10337.174137    155.991709
PR19  14600.243405   -863.374688  20891.946426   -286.816928
PR20  -4054.730755 -14429.155723  20637.066281   -117.359734
PR21 -18517.912805 -16269.469569   6632.547567   -124.252034
PR22 -21144.619712  -8708.795343 -11272.796182     73.602158
PR24   4990.687856  14778.015015 -20160.208157    -66.978111
PR25 -18403.477392 -16729.721538   5734.698290    -99.824257
PR26 -21463.623355   3928.051504 -13213.038329      8.546884
*  2024 08 08 11 15  0.00000000
PG02  21668.354847  11860.381161  10644.495943   -383.140438
PG03  15068.903906    873.080041  21675.120469    491.701159
PG04  25722.661870   1483.131190   6761.260673    420.046700
PG05  -7949.552057 -17101.365485 -18856.221297   -182.503992
PG06    110.186074 -19255.529158  18307.691293    111.637020
PG07  15911.609325  -3665.335138 -20507.472314    -55.196022
PG08  19660.403139   7972.479629 -16350.032168    307.462146
PG09  25089.782755  -7744.229527  -4277.770495    305.693187
PG10 -10318.363230  24217.380229  -1487.766286    -88.024264
PG11 -11316.485005 -23112.709131   6735.506872   -718.293768
PG12 -14261.357928  -5002.883659  21560.150284   -528.727481
PG13 -11427.194580 -13506.034129 -20103.722903    669.553741
PG14  13176.726242 -22308.950583  -5238.646505    467.626082
PG15 -20411.804074  -6111.247920 -16480.051628    190.231710
PG16   3521.013177  20116.927375 -17067.892763   -214.312231
PG17  15643.576085 -13474.150486  17222.335935    659.731575
PG18 -15061.928627   4382.312857 -21448.062758   -644.347159
PG19   6326.225899 -14780.298759  20901.112585    521.718844
PG20  -2912.087583 -24328.942872 -10370.513835    371.900362
PG21  21185.152731  16176.794409   5429.538383    104.158924
PG22   9312.393425 -24842.753714   3592.530354    -48.935066
PG23 -15371.618813  16907.571741 -13327.536557    292.538300
PG24 -21513.782427 -13841.350593   7454.560481   -485.757360
PG25 -16887.747915   7669.444085  18577.865948    499.157873
PG26  -3251.604516  25638.620925  -5351.997255    104.630198
PG27   8946.675496  13600.231239 -21348.592988    -32.710562
PG28  -1836.462812  18274.771042  19175.472160   -364.274681
PG29 -26444.892301   2965.246095  -1059.487839   -585.241874
PG30   7997.919099 -14324.244857 -20691.892794   -343.675125
PG31   7879.017241  22611.509650  10842.858355   -226.070659
PG32 -13155.168771  14825.324203  17797.310184   -607.257241
PR01 -20397.921424  14848.098154   3801.483623     93.865440
PR02  -9054.501703  15064.503435  18496.585984    -24.033574
PR03   8253.099413   7620.632502  22947.789943    105.248084
PR04  20403.217289  -3729.506768  14883.378617    248.961418
PR05  21907.462079 -13038.661953  -1172.709916    135.768689
PR07  -8737.589771  -7258.145227 -22798.117986     88.366736
PR08 -20489.114668   4045.628819 -14564.618315     -6.302257
PR09    932.979967 -25144.604847  -3884.881281    202.223291
PR11 -10673.960071  -6635.442686  22208.202846     15.554328
PR12  -8953.729430  14516.293773  18994.233582     43.390375
PR14   6669.875499  21007.167514 -12842.925933     26.791513
PR15  10900.148425   4892.630195 -22512.661312     77.060021
PR16   8809.858089 -14356.092175 -19125.078421     28.069687
PR17  18169.320703  15342.652446  -9153.228911    111.697672
PR18  22521.250719   9524.453536   7344.917958    155.993416
PR19  16711.336724    447.399856  19258.293334   -286.819092
PR20  -1936.304910 -12866.619863  21939.609531   -117.360840
PR21 -17771.309924 -15568.418913   9661.241000   -124.255062
PR22 -22227.694860  -9277.301469  -8367.386682     73.595548
PR24   2836.554583  13363.444038 -21520.941178    -66.979638
PR25 -17742.588174 -16110.196301   8781.105767    -99.825255
PR26 -19833.114241   3182.795563 -15718.784818      8.548567
EOF
